SL-16 R/B               
1 25407U 98045B   26076.97850513  .00000173  00000+0  11139-3 0  9991
2 25407  71.0120 164.1442 0007301 355.0611   5.0439 14.16194522428274
ISS (ZARYA)             
1 25544U 98067A   26077.16145852  .00007208  00000+0  14196-3 0  9994
2 25544  51.6338  30.4771 0006242 203.4545 156.6159 15.48351952557640
CZ-4B R/B               
1 25732U 99025C   26077.13145479  .00000045  00000+0  42713-4 0  9999
2 25732  98.6608 121.2124 0036328 321.9976 100.1841 14.18267072389362
OKEAN-O                 
1 25860U 99039A   26077.16869735  .00000648  00000+0  91827-4 0  9996
2 25860  97.9423 136.9733 0001017  74.8261 285.3063 14.80349343435644
SL-16 R/B               
1 25861U 99039B   26077.14058399  .00000554  00000+0  76991-4 0  9992
2 25861  97.9946 136.2240 0013811 226.3634 133.6434 14.81743323438113
DELTA 2 R/B             
1 25876U 99041E   26076.51204994  .00000799  00000+0  16765-3 0  9998
2 25876  51.7612 270.0340 0502558  11.5057 349.6876 14.11860091364133
HELIOS 1B               
1 25977U 99064A   26076.98658945  .00001504  00000+0  17135-3 0  9992
2 25977  98.1688 339.4735 0002283  63.3103 296.8346 14.87731339686494
TERRA                   
1 25994U 99068A   26077.27680216  .00000396  00000+0  89845-4 0  9990
2 25994  97.9575 130.3828 0003204 132.8581 292.3535 14.61023876396336
SL-16 R/B               
1 26070U 00006B   26077.27868105 -.00000151  00000+0 -52334-4 0  9999
2 26070  71.0003  79.7757 0016296 176.8906 183.2322 14.15823894349777
TITAN 4B R/B            
1 26474U 00047B   26077.24356876  .00003567  00000+0  22559-3 0  9993
2 26474  67.9914  16.4554 0038927  25.2226 335.0812 15.09646678394206
ENVISAT                 
1 27386U 02009A   26077.31486652  .00000106  00000+0  48035-4 0  9994
2 27386  98.3743  30.7075 0001304  82.4766  37.9972 14.39040042260412
IDEFIX & ARIANE 42P R/B 
1 27422U 02021B   26077.30575999  .00000252  00000+0  11211-3 0  9998
2 27422  98.5880  15.8095 0012073 156.9215 203.2513 14.31032071245253
